[{"OBJECT_NAME":"VIZARD-ION (RS68S)","OBJECT_ID":"2024-199Q","EPOCH":"2026-03-09T21:35:41.706528","MEAN_MOTION":15.48510131,"ECCENTRICITY":0.00065549,"INCLINATION":97.3148,"RA_OF_ASC_NODE":303.5274,"ARG_OF_PERICENTER":277.5906,"MEAN_ANOMALY":82.46,"EPHEMERIS_TYPE":0,"CLASSIFICATION_TYPE":"U","NORAD_CAT_ID":61749,"ELEMENT_SET_NO":999,"REV_AT_EPOCH":12217,"BSTAR":0.00065976673,"MEAN_MOTION_DOT":0.00035136,"MEAN_MOTION_DDOT":0},{"OBJECT_NAME":"STARLINK-36717","OBJECT_ID":"2026-026Y","EPOCH":"2026-03-09T22:00:01.999584","MEAN_MOTION":15.49158128,"ECCENTRICITY":0.00015847,"INCLINATION":97.2845,"RA_OF_ASC_NODE":123.5271,"ARG_OF_PERICENTER":85.907,"MEAN_ANOMALY":181.2155,"EPHEMERIS_TYPE":0,"CLASSIFICATION_TYPE":"U","NORAD_CAT_ID":67743,"ELEMENT_SET_NO":999,"REV_AT_EPOCH":548,"BSTAR":0.0013003436,"MEAN_MOTION_DOT":0.00071198,"MEAN_MOTION_DDOT":0}]
